APRIZESAT 2             
1 28366U 04025A   21274.91826790  .00000033  00000-0  23910-4 0  9999
2 28366  98.2004 151.6744 0108371  32.8355 327.9505 14.36753230904697
SAUDICOMSAT 1           
1 28369U 04025D   21274.86873524  .00000125  00000-0  41694-4 0  9994
2 28369  98.4003 230.4777 0032357 246.3629 113.4169 14.52647806914301
SAUDICOMSAT 2           
1 28370U 04025E   21274.82825721  .00000124  00000-0  45448-4 0  9998
2 28370  98.4921 228.7512 0058937  65.8780 294.8561 14.47569241911210
APRIZESAT 1             
1 28372U 04025G   21275.40469931  .00000082  00000-0  33148-4 0  9999
2 28372  98.4531 229.8926 0045981 342.6495  17.3125 14.49693040912766
NANOSAT-1               
1 28493U 04049B   21274.84215915  .00000230  00000-0  43007-4 0  9997
2 28493  98.1122  10.6249 0005424  51.5933 308.5761 14.73718448901775
SAUDICOMSAT 7           
1 31119U 07012C   21274.78153258  .00000136  00000-0  36257-4 0  9997
2 31119  98.1489 218.6109 0059883 179.6321 180.4935 14.61894666770910
SAUDICOMSAT 6           
1 31121U 07012E   21274.84772232  .00000156  00000-0  42622-4 0  9991
2 31121  98.1941 213.9178 0075191 277.5467  81.7196 14.58690424769247
SAUDICOMSAT 5           
1 31124U 07012H   21274.80923007  .00000173  00000-0  41860-4 0  9990
2 31124  98.1167 220.5355 0052518 129.2970 231.2907 14.63602632771752
SAUDICOMSAT 3           
1 31125U 07012J   21274.84351978  .00000238  00000-0  52436-4 0  9990
2 31125  98.0813 222.4466 0044566  80.1259 280.4971 14.65386379772637
SAUDICOMSAT 4           
1 31127U 07012L   21274.79679412  .00000137  00000-0  37504-4 0  9999
2 31127  98.1732 216.8524 0066918 225.8705 133.6980 14.60408272770124
APRIZESAT 4             
1 35684U 09041D   21274.95139434  .00000215  00000-0  35937-4 0  9993
2 35684  98.3134 274.7599 0048342 100.4523 260.2140 14.79403832656895
APRIZESAT 3             
1 35686U 09041F   21275.15800634  .00000198  00000-0  27629-4 0  9994
2 35686  98.1285 350.9536 0071585 310.6328  48.8676 14.87558722660250
AISSAT 1                
1 36797U 10035C   21274.74930156  .00000522  00000-0  65561-4 0  9998
2 36797  98.2274  84.3670 0009872 294.5910  65.4276 14.86570151608002
S-NET D                 
1 43186U 18014G   21274.69412499  .00001326  00000-0  11965-3 0  9993
2 43186  97.6680 180.3235 0012782  86.4011 273.8672 14.97156795200193
S-NET B                 
1 43187U 18014H   21275.29559776  .00001164  00000-0  10557-3 0  9997
2 43187  97.6677 180.8761 0012796  84.4986 275.7695 14.97156916200284
S-NET A                 
1 43188U 18014J   21275.29573018  .00001163  00000-0  10556-3 0  9991
2 43188  97.6681 180.9260 0012796  84.5903 275.6778 14.97155749200289
S-NET C                 
1 43189U 18014K   21274.69471268  .00001306  00000-0  11789-3 0  9997
2 43189  97.6676 180.2783 0012776  86.2581 274.0101 14.97154963198743
SALSAT                  
1 46495U 20068K   21274.94520482  .00000719  00000-0  57010-4 0  9998
2 46495  97.6987 211.8437 0019005  73.6187 286.7126 15.03573598 55333
